[Satellite]
VERSION=1.1
NAME=SL-16 R/B
NICKNAME=SL-16 R/B
TLE1=1 23705U 95058B   20157.78300245  .00000248  00000-0  15220-3 0  9995
TLE2=2 23705  71.0229 273.4360 0010465  84.0751 276.1565 14.15137911270325
STATUS=0
